start=new Date('2021-10-01T00:00:00.000Z').valueOf();
sats=[{"CLASSIFICATION_TYPE":"U","GP_ID":"185864383","TIME_SYSTEM":"UTC","RA_OF_ASC_NODE":"68.4107","PERIOD":"95.592","EPOCH":"2021-09-30T17:20:12.981408","APOAPSIS":"548.549","ARG_OF_PERICENTER":"96.1570","SEMIMAJOR_AXIS":"6925.346","RCS_SIZE":"LARGE","REV_AT_EPOCH":"2343","FILE":"3137017","LAUNCH_DATE":"2021-05-04","REF_FRAME":"TEME","MEAN_ANOMALY":"263.9639","EPHEMERIS_TYPE":"0","MEAN_ELEMENT_THEORY":"SGP4","ECCENTRICITY":"0.00019310","COUNTRY_CODE":"US","BSTAR":"0.00013620000000","INCLINATION":"53.0554","MEAN_MOTION_DOT":"0.00001748","DECAY_DATE":null,"TLE_LINE1":"1 48366U 21038P   21273.72237247  .00001748  00000-0  13620-3 0  9995","CENTER_NAME":"EARTH","OBJECT_NAME":"STARLINK-2631","TLE_LINE2":"2 48366  53.0554  68.4107 0001931  96.1570 263.9639 15.06400683 23432","SITE":"AFETR","OBJECT_TYPE":"PAYLOAD","ELEMENT_SET_NO":"999","MEAN_MOTION_DDOT":"0.0000000000000","PERIAPSIS":"545.874","NORAD_CAT_ID":"48366","OBJECT_ID":"2021-038P","MEAN_MOTION":"15.06400683"},{"GP_ID":"185870992","CLASSIFICATION_TYPE":"U","RA_OF_ASC_NODE":"68.4302","TIME_SYSTEM":"UTC","RCS_SIZE":"LARGE","ARG_OF_PERICENTER":"97.6497","SEMIMAJOR_AXIS":"6925.336","APOAPSIS":"548.504","EPOCH":"2021-09-30T17:14:54.513600","PERIOD":"95.592","FILE":"3137329","LAUNCH_DATE":"2021-05-04","REV_AT_EPOCH":"2343","MEAN_ELEMENT_THEORY":"SGP4","EPHEMERIS_TYPE":"0","REF_FRAME":"TEME","MEAN_ANOMALY":"262.4706","TLE_LINE1":"1 48367U 21038Q   21273.71868650  .00000349  00000-0  42301-4 0  9998","DECAY_DATE":null,"CENTER_NAME":"EARTH","INCLINATION":"53.0571","MEAN_MOTION_DOT":"0.00000349","BSTAR":"0.00004230100000","COUNTRY_CODE":"US","ECCENTRICITY":"0.00018810","NORAD_CAT_ID":"48367","OBJECT_ID":"2021-038Q","MEAN_MOTION":"15.06404001","PERIAPSIS":"545.899","ELEMENT_SET_NO":"999","OBJECT_TYPE":"PAYLOAD","MEAN_MOTION_DDOT":"0.0000000000000","OBJECT_NAME":"STARLINK-2643","SITE":"AFETR","TLE_LINE2":"2 48367  53.0571  68.4302 0001881  97.6497 262.4706 15.06404001 23434"},{"PERIAPSIS":"545.894","MEAN_MOTION":"15.06404653","OBJECT_ID":"2021-038R","NORAD_CAT_ID":"48368","SITE":"AFETR","TLE_LINE2":"2 48368  53.0551  68.3476 0001885  98.3233 261.7970 15.06404653 23443","OBJECT_NAME":"STARLINK-2623","MEAN_MOTION_DDOT":"0.0000000000000","OBJECT_TYPE":"PAYLOAD","ELEMENT_SET_NO":"999","INCLINATION":"53.0551","MEAN_MOTION_DOT":"0.00001443","CENTER_NAME":"EARTH","TLE_LINE1":"1 48368U 21038R   21273.73618469  .00001443  00000-0  11574-3 0  9995","DECAY_DATE":null,"ECCENTRICITY":"0.00018850","COUNTRY_CODE":"US","BSTAR":"0.00011574000000","EPHEMERIS_TYPE":"0","MEAN_ELEMENT_THEORY":"SGP4","MEAN_ANOMALY":"261.7970","REF_FRAME":"TEME","REV_AT_EPOCH":"2344","LAUNCH_DATE":"2021-05-04","FILE":"3136923","ARG_OF_PERICENTER":"98.3233","SEMIMAJOR_AXIS":"6925.334","RCS_SIZE":"LARGE","PERIOD":"95.592","EPOCH":"2021-09-30T17:40:06.357216","APOAPSIS":"548.505","RA_OF_ASC_NODE":"68.3476","TIME_SYSTEM":"UTC","GP_ID":"185838253","CLASSIFICATION_TYPE":"U"},{"PERIAPSIS":"546.028","OBJECT_ID":"2021-038S","MEAN_MOTION":"15.06397662","NORAD_CAT_ID":"48369","OBJECT_NAME":"STARLINK-2641","TLE_LINE2":"2 48369  53.0541  68.4540 0001722  91.5621 268.5566 15.06397662 23438","SITE":"AFETR","OBJECT_TYPE":"PAYLOAD","ELEMENT_SET_NO":"999","MEAN_MOTION_DDOT":"0.0000000000000","MEAN_MOTION_DOT":"0.00000006","INCLINATION":"53.0541","CENTER_NAME":"EARTH","TLE_LINE1":"1 48369U 21038S   21273.71500235  .00000006  00000-0  19317-4 0  9993","DECAY_DATE":null,"COUNTRY_CODE":"US","ECCENTRICITY":"0.00017220","BSTAR":"0.00001931700000","EPHEMERIS_TYPE":"0","MEAN_ELEMENT_THEORY":"SGP4","REF_FRAME":"TEME","MEAN_ANOMALY":"268.5566","REV_AT_EPOCH":"2343","FILE":"3137023","LAUNCH_DATE":"2021-05-04","SEMIMAJOR_AXIS":"6925.356","ARG_OF_PERICENTER":"91.5621","RCS_SIZE":"LARGE","PERIOD":"95.592","EPOCH":"2021-09-30T17:09:36.203040","APOAPSIS":"548.413","RA_OF_ASC_NODE":"68.4540","TIME_SYSTEM":"UTC","GP_ID":"185864466","CLASSIFICATION_TYPE":"U"},{"RA_OF_ASC_NODE":"70.8439","TIME_SYSTEM":"UTC","RCS_SIZE":"LARGE","SEMIMAJOR_AXIS":"6925.373","ARG_OF_PERICENTER":"98.6149","APOAPSIS":"548.667","EPOCH":"2021-09-30T04:19:59.449152","PERIOD":"95.593","GP_ID":"185862399","CLASSIFICATION_TYPE":"U","TLE_LINE1":"1 48370U 21038T   21273.18054918  .00001505  00000-0  11996-3 0  9997","DECAY_DATE":null,"CENTER_NAME":"EARTH","INCLINATION":"53.0553","MEAN_MOTION_DOT":"0.00001505","BSTAR":"0.00011996000000","ECCENTRICITY":"0.00020630","COUNTRY_CODE":"US","NORAD_CAT_ID":"48370","OBJECT_ID":"2021-038T","MEAN_MOTION":"15.06391997","PERIAPSIS":"545.809","MEAN_MOTION_DDOT":"0.0000000000000","OBJECT_TYPE":"PAYLOAD","ELEMENT_SET_NO":"999","TLE_LINE2":"2 48370  53.0553  70.8439 0002063  98.6149 261.5074 15.06391997 22766","SITE":"AFETR","OBJECT_NAME":"STARLINK-2621","LAUNCH_DATE":"2021-05-04","FILE":"3136969","REV_AT_EPOCH":"2276","MEAN_ELEMENT_THEORY":"SGP4","EPHEMERIS_TYPE":"0","MEAN_ANOMALY":"261.5074","REF_FRAME":"TEME"},{"TLE_LINE2":"2 48371  53.0562  69.6709 0001927  96.1046 264.0162 15.06403882 22808","SITE":"AFETR","OBJECT_NAME":"STARLINK-2589","MEAN_MOTION_DDOT":"0.0000000000000","OBJECT_TYPE":"PAYLOAD","ELEMENT_SET_NO":"999","PERIAPSIS":"545.867","NORAD_CAT_ID":"48371","OBJECT_ID":"2021-038U","MEAN_MOTION":"15.06403882","ECCENTRICITY":"0.00019270","COUNTRY_CODE":"US","BSTAR":"0.00015364000000","INCLINATION":"53.0562","MEAN_MOTION_DOT":"0.00002008","DECAY_DATE":null,"TLE_LINE1":"1 48371U 21038U   21273.44224096  .00002008  00000-0  15364-3 0  9995","CENTER_NAME":"EARTH","MEAN_ANOMALY":"264.0162","REF_FRAME":"TEME","EPHEMERIS_TYPE":"0","MEAN_ELEMENT_THEORY":"SGP4","REV_AT_EPOCH":"2280","LAUNCH_DATE":"2021-05-04","FILE":"3136969","PERIOD":"95.592","EPOCH":"2021-09-30T10:36:49.618944","APOAPSIS":"548.536","SEMIMAJOR_AXIS":"6925.337","ARG_OF_PERICENTER":"96.1046","RCS_SIZE":"LARGE","TIME_SYSTEM":"UTC","RA_OF_ASC_NODE":"69.6709","CLASSIFICATION_TYPE":"U","GP_ID":"185862616"},{"PERIAPSIS":"546.141","NORAD_CAT_ID":"48372","OBJECT_ID":"2021-038V","MEAN_MOTION":"15.06388954","SITE":"AFETR","TLE_LINE2":"2 48372  53.0563  69.6850 0001597 102.5103 257.6065 15.06388954 22808","OBJECT_NAME":"STARLINK-2572","MEAN_MOTION_DDOT":"0.0000000000000","OBJECT_TYPE":"PAYLOAD","ELEMENT_SET_NO":"999","INCLINATION":"53.0563","MEAN_MOTION_DOT":"0.00001849","CENTER_NAME":"EARTH","TLE_LINE1":"1 48372U 21038V   21273.43856367  .00001849  00000-0  14305-3 0  9993","DECAY_DATE":null,"COUNTRY_CODE":"US","ECCENTRICITY":"0.00015970","BSTAR":"0.00014305000000","EPHEMERIS_TYPE":"0","MEAN_ELEMENT_THEORY":"SGP4","MEAN_ANOMALY":"257.6065","REF_FRAME":"TEME","REV_AT_EPOCH":"2280","LAUNCH_DATE":"2021-05-04","FILE":"3136969","SEMIMAJOR_AXIS":"6925.382","ARG_OF_PERICENTER":"102.5103","RCS_SIZE":"MEDIUM","PERIOD":"95.593","EPOCH":"2021-09-30T10:31:31.901088","APOAPSIS":"548.353","RA_OF_ASC_NODE":"69.6850","TIME_SYSTEM":"UTC","GP_ID":"185862182","CLASSIFICATION_TYPE":"U"},{"ECCENTRICITY":"0.00018490","COUNTRY_CODE":"US","BSTAR":"-0.00000652290000","INCLINATION":"53.0575","MEAN_MOTION_DOT":"-0.00000379","CENTER_NAME":"EARTH","TLE_LINE1":"1 48373U 21038W   21273.43487661 -.00000379  00000-0 -65229-5 0  9993","DECAY_DATE":null,"OBJECT_NAME":"STARLINK-2609","SITE":"AFETR","TLE_LINE2":"2 48373  53.0575  69.7057 0001849  93.0979 267.0221 15.06394543 22807","OBJECT_TYPE":"PAYLOAD","ELEMENT_SET_NO":"999","MEAN_MOTION_DDOT":"0.0000000000000","PERIAPSIS":"545.950","NORAD_CAT_ID":"48373","OBJECT_ID":"2021-038W","MEAN_MOTION":"15.06394543","REV_AT_EPOCH":"2280","FILE":"3136969","LAUNCH_DATE":"2021-05-04","REF_FRAME":"TEME","MEAN_ANOMALY":"267.0221","EPHEMERIS_TYPE":"0","MEAN_ELEMENT_THEORY":"SGP4","TIME_SYSTEM":"UTC","RA_OF_ASC_NODE":"69.7057","PERIOD":"95.592","APOAPSIS":"548.511","EPOCH":"2021-09-30T10:26:13.339104","ARG_OF_PERICENTER":"93.0979","SEMIMAJOR_AXIS":"6925.365","RCS_SIZE":"LARGE","CLASSIFICATION_TYPE":"U","GP_ID":"185862726"},{"CLASSIFICATION_TYPE":"U","GP_ID":"185862074","RA_OF_ASC_NODE":"69.7163","TIME_SYSTEM":"UTC","ARG_OF_PERICENTER":"98.6221","SEMIMAJOR_AXIS":"6925.362","RCS_SIZE":"LARGE","PERIOD":"95.592","APOAPSIS":"548.456","EPOCH":"2021-09-30T10:20:55.006944","REV_AT_EPOCH":"2280","LAUNCH_DATE":"2021-05-04","FILE":"3136969","EPHEMERIS_TYPE":"0","MEAN_ELEMENT_THEORY":"SGP4","MEAN_ANOMALY":"261.4969","REF_FRAME":"TEME","MEAN_MOTION_DOT":"0.00001523","INCLINATION":"53.0560","TLE_LINE1":"1 48374U 21038X   21273.43119221  .00001523  00000-0  12111-3 0  9998","CENTER_NAME":"EARTH","DECAY_DATE":null,"COUNTRY_CODE":"US","ECCENTRICITY":"0.00017750","BSTAR":"0.00012111000000","PERIAPSIS":"545.998","OBJECT_ID":"2021-038X","MEAN_MOTION":"15.06395560","NORAD_CAT_ID":"48374","TLE_LINE2":"2 48374  53.0560  69.7163 0001775  98.6221 261.4969 15.06395560 22806","SITE":"AFETR","OBJECT_NAME":"STARLINK-2604","MEAN_MOTION_DDOT":"0.0000000000000","ELEMENT_SET_NO":"999","OBJECT_TYPE":"PAYLOAD"},{"PERIOD":"95.593","EPOCH":"2021-09-30T10:15:36.989280","APOAPSIS":"548.547","ARG_OF_PERICENTER":"96.3072","SEMIMAJOR_AXIS":"6925.380","RCS_SIZE":"LARGE","TIME_SYSTEM":"UTC","RA_OF_ASC_NODE":"69.7379","CLASSIFICATION_TYPE":"U","GP_ID":"185862291","OBJECT_NAME":"STARLINK-2603","SITE":"AFETR","TLE_LINE2":"2 48375  53.0567  69.7379 0001880  96.3072 263.8131 15.06389876 22809","OBJECT_TYPE":"PAYLOAD","ELEMENT_SET_NO":"999","MEAN_MOTION_DDOT":"0.0000000000000","PERIAPSIS":"545.943","MEAN_MOTION":"15.06389876","OBJECT_ID":"2021-038Y","NORAD_CAT_ID":"48375","COUNTRY_CODE":"US","ECCENTRICITY":"0.00018800","BSTAR":"-0.00013006000000","MEAN_MOTION_DOT":"-0.00002218","INCLINATION":"53.0567","TLE_LINE1":"1 48375U 21038Y   21273.42751145 -.00002218  00000-0 -13006-3 0  9993","DECAY_DATE":null,"CENTER_NAME":"EARTH","REF_FRAME":"TEME","MEAN_ANOMALY":"263.8131","EPHEMERIS_TYPE":"0","MEAN_ELEMENT_THEORY":"SGP4","REV_AT_EPOCH":"2280","FILE":"3136969","LAUNCH_DATE":"2021-05-04"}];
